NORAD_CAT_ID,OBJECT_NAME,OBJECT_TYPE,EPOCH,MEAN_MOTION,ECCENTRICITY,INCLINATION,RA_OF_ASC_NODE,ARG_OF_PERICENTER,MEAN_ANOMALY,BSTAR,MEAN_MOTION_DOT,MEAN_MOTION_DDOT,TLE_LINE0,TLE_LINE1,TLE_LINE2,SEMIMAJOR_AXIS,PERIOD,APOGEE,PERIGEE,DECAYED
51985.0,STARLINK-3651,PAYLOAD,2022-09-10 22:00:00,15.08836809,0.0001599,53.2173,6.2818,49.5302,113.3008,1.5224e-05,-4.6e-07,0.0,0 STARLINK-3651,1 51985U 22025AF  22253.91667824 -.00000046  00000-0  15224-4 0  9995,2 51985  53.2173   6.2818 0001599  49.5302 113.3008 15.08836809 29558,6917.89,95.438,540.861,538.649,0.0
51985.0,STARLINK-3651,PAYLOAD,2022-09-11 04:00:00,15.08819498,0.0001313,53.2187,5.1635,62.3694,19.2238,0.0032226,0.00051344,0.0,0 STARLINK-3651,1 51985U 22025AF  22254.16667824  .00051344  00000-0  32226-2 0  9998,2 51985  53.2187   5.1635 0001313  62.3694  19.2238 15.08819498 29586,6917.943,95.439,540.716,538.9,0.0
51985.0,STARLINK-3651,PAYLOAD,2022-09-11 12:00:00,15.08868448,0.0001375999999999,53.2187,3.6685,59.0435,34.1459,-0.0035414,-0.00056253,0.0,0 STARLINK-3651,1 51985U 22025AF  22254.50001157 -.00056253  00000-0 -35414-2 0  9995,2 51985  53.2187   3.6685 0001376  59.0435  34.1459 15.08868448 29635,6917.793000000002,95.436,540.61,538.707,0.0
51985.0,STARLINK-3651,PAYLOAD,2022-09-11 14:00:01,15.08842039,0.0001419999999999,53.2186,3.2948,56.039,130.0606,-0.00087618,-0.00014206,0.0,0 STARLINK-3651,1 51985U 22025AF  22254.58334491 -.00014206  00000-0 -87618-3 0  9999,2 51985  53.2186   3.2948 0001420  56.0390 130.0606 15.08842039  1301,6917.874,95.437,540.721,538.757,0.0
51985.0,STARLINK-3651,PAYLOAD,2022-09-11 22:00:00,15.08856956,0.0001426,53.2182,1.7981,54.5637,143.1229,-0.0034448,-0.00054721,0.0,0 STARLINK-3651,1 51985U 22025AF  22254.91667824 -.00054721  00000-0 -34448-2 0  9993,2 51985  53.2182   1.7981 0001426  54.5637 143.1229 15.08856956  1309,6917.829000000002,95.436,540.68,538.707,0.0
51985.0,STARLINK-3651,PAYLOAD,2022-09-12 04:00:00,15.08798672,0.0001328,53.2182,0.6748,61.9946,54.393,0.0033982,0.00054148,0.0,0 STARLINK-3651,1 51985U 22025AF  22255.16667824  .00054148  00000-0  33982-2 0  9994,2 51985  53.2182   0.6748 0001328  61.9946  54.3930 15.08798672 29744,6918.007,95.44,540.79,538.953,0.0
51985.0,STARLINK-3651,PAYLOAD,2022-09-12 14:00:01,15.08683238,0.0001473,53.2178,358.8013,55.3705,165.5037,0.014569,0.00238507,0.0,0 STARLINK-3651,1 51985U 22025AF  22255.58334491  .00238507  00000-0  14569-1 0  9993,2 51985  53.2178 358.8013 0001473  55.3705 165.5037 15.08683238 29804,6918.36,95.447,541.244,539.206,0.0
51985.0,STARLINK-3651,PAYLOAD,2022-09-12 22:00:00,15.08855027,0.0001559,53.218,357.3093,56.5523,175.9029,-0.0011744,-0.00018938,0.0,0 STARLINK-3651,1 51985U 22025AF  22255.91667824 -.00018938  00000-0 -11744-2 0  9998,2 51985  53.2180 357.3093 0001559  56.5523 175.9029 15.08855027  1303,6917.834,95.437,540.778,538.621,0.0
51985.0,STARLINK-3651,PAYLOAD,2022-09-13 06:00:00,15.08831143,0.0001274999999999,53.2177,355.8112,59.4255,184.6211,0.0012315999999999,0.00019362,0.0,0 STARLINK-3651,1 51985U 22025AF  22256.25001157  .00019362  00000-0  12316-2 0  9993,2 51985  53.2177 355.8112 0001275  59.4255 184.6211 15.08831143 29902,6917.906999999997,95.438,540.654,538.89,0.0
51985.0,STARLINK-3651,PAYLOAD,2022-09-13 14:00:01,15.08870025,0.0001469,53.2177,354.3145,51.2788,204.3602,-0.0097047,-0.00151629,0.0,0 STARLINK-3651,1 51985U 22025AF  22256.58334491 -.00151629  00000-0 -97047-2 0  9998,2 51985  53.2177 354.3145 0001469  51.2788 204.3602 15.08870025  1308,6917.7890000000025,95.436,540.67,538.637,0.0
51985.0,STARLINK-3651,PAYLOAD,2022-09-13 16:00:00,15.08818101,0.0001546,53.2177,353.9403,50.2519,298.2952,-0.004714,-0.00074491,0.0,0 STARLINK-3651,1 51985U 22025AF  22256.66667824 -.00074491  00000-0 -47140-2 0  9996,2 51985  53.2177 353.9403 0001546  50.2519 298.2952 15.08818101 29966,6917.946999999999,95.439,540.882,538.743,0.0
51985.0,STARLINK-3651,PAYLOAD,2022-09-13 22:00:00,15.08841718,0.0001335,53.2179,352.8198,45.4014,221.8039,-0.0014934,-0.00023978,0.0,0 STARLINK-3651,1 51985U 22025AF  22256.91667824 -.00023978  00000-0 -14934-2 0  9993,2 51985  53.2179 352.8198 0001335  45.4014 221.8039 15.08841718 30004,6917.875,95.437,540.664,538.817,0.0
51985.0,STARLINK-3651,PAYLOAD,2022-09-14 14:00:01,15.08811613,0.0001553,53.2182,349.8284,48.9116,241.4618,0.001219,0.00019151,0.0,0 STARLINK-3651,1 51985U 22025AF  22257.58334491  .00019151  00000-0  12190-2 0  9996,2 51985  53.2182 349.8284 0001553  48.9116 241.4618 15.08811613  1306,6917.967,95.439,540.9069999999998,538.758,0.0
51985.0,STARLINK-3651,PAYLOAD,2022-09-14 22:00:00,15.08847155,0.0001483,53.2182,348.3313,47.7643,254.1741,-0.0014552999999999,-0.00023379,0.0,0 STARLINK-3651,1 51985U 22025AF  22257.91667824 -.00023379  00000-0 -14553-2 0  9996,2 51985  53.2182 348.3313 0001483  47.7643 254.1741 15.08847155 30150,6917.859,95.437,540.749,538.698,0.0
51985.0,STARLINK-3651,PAYLOAD,2022-09-15 14:00:01,15.08860795,0.0001665999999999,53.2185,345.3394,48.6184,276.5298,-0.0013233,-0.00021299,0.0,0 STARLINK-3651,1 51985U 22025AF  22258.58334491 -.00021299  00000-0 -13233-2 0  9994,2 51985  53.2185 345.3394 0001666  48.6184 276.5298 15.08860795  1307,6917.816999999999,95.436,540.8340000000002,538.529,0.0
51985.0,STARLINK-3651,PAYLOAD,2022-09-15 16:00:00,15.088365,0.000166,53.2185,344.9655,47.5265,10.5328,0.0016582,0.00026198,0.0,0 STARLINK-3651,1 51985U 22025AF  22258.66667824  .00026198  00000-0  16582-2 0  9993,2 51985  53.2185 344.9655 0001660  47.5265  10.5328 15.08836500  1301,6917.891,95.438,540.904,538.6080000000002,0.0
51985.0,STARLINK-3651,PAYLOAD,2022-09-16 10:49:17,15.08838748,0.000111,53.2185,341.4346,87.0701,273.0418,1.3717e-05,-6.9e-07,0.0,0 STARLINK-3651,1 51985U 22025AF  22259.45089555 -.00000069  00000-0  13717-4 0  9999,2 51985  53.2185 341.4346 0001110  87.0701 273.0418 15.08838748 30386,6917.884,95.438,540.5169999999998,538.981,0.0
51985.0,STARLINK-3651,PAYLOAD,2022-09-16 14:00:04,15.08831745,0.000149,53.2196,340.8476,74.4535,285.6621,4.3822e-05,4.09e-06,0.0,0 STARLINK-3651,1 51985U 22025AF  22259.58338098  .00000409  00000-0  43822-4 0  9999,2 51985  53.2196 340.8476 0001490  74.4535 285.6621 15.08831745 29317,6917.906,95.438,540.8009999999998,538.74,0.0
51985.0,STARLINK-3651,PAYLOAD,2022-09-16 21:57:00,15.08826987,0.0001374,53.2198,339.3604,57.6919,302.4206,3.404e-05,2.54e-06,0.0,0 STARLINK-3651,1 51985U 22025AF  22259.91458510  .00000254  00000-0  34040-4 0  9998,2 51985  53.2198 339.3604 0001374  57.6919 302.4206 15.08826987 30451,6917.92,95.438,540.736,538.835,0.0
51985.0,STARLINK-3651,PAYLOAD,2022-09-17 12:15:28,15.08836771,0.0001578,53.2202,336.6863,57.1208,302.9935,-5.7335e-05,-1.2e-05,0.0,0 STARLINK-3651,1 51985U 22025AF  22260.51074605 -.00001200  00000-0 -57335-4 0  9991,2 51985  53.2202 336.6863 0001578  57.1208 302.9935 15.08836771 30542,6917.89,95.438,540.847,538.664,0.0
51985.0,STARLINK-3651,PAYLOAD,2022-09-18 04:09:19,15.08840835,0.0001786999999999,53.22,333.7122,65.5678,294.55,5.8269e-05,6.39e-06,0.0,0 STARLINK-3651,1 51985U 22025AF  22261.17314105  .00000639  00000-0  58269-4 0  9996,2 51985  53.2200 333.7122 0001787  65.5678 294.5500 15.08840835 30643,6917.878000000002,95.438,540.979,538.507,0.0
51985.0,STARLINK-3651,PAYLOAD,2022-09-18 10:30:51,15.08862605,0.0001576999999999,53.2193,332.5228,68.41199999999999,291.704,-0.00018967,-3.307e-05,0.0,0 STARLINK-3651,1 51985U 22025AF  22261.43809471 -.00003307  00000-0 -18967-3 0  9997,2 51985  53.2193 332.5228 0001577  68.4120 291.7040 15.08862605 30680,6917.811,95.436,540.7669999999998,538.585,0.0
51985.0,STARLINK-3651,PAYLOAD,2022-09-18 13:41:38,15.08830084,0.0001641999999999,53.2193,331.9271,59.1098,301.0055,5.1276e-05,5.28e-06,0.0,0 STARLINK-3651,1 51985U 22025AF  22261.57058808  .00000528  00000-0  51276-4 0  9993,2 51985  53.2193 331.9271 0001642  59.1098 301.0055 15.08830084 30705,6917.911,95.438,540.9119999999998,538.64,0.0
51985.0,STARLINK-3651,PAYLOAD,2022-09-19 11:57:03,15.08831529,0.0001629999999999,53.2193,327.7665,57.7117,302.4033,4.4757e-05,4.24e-06,0.0,0 STARLINK-3651,1 51985U 22025AF  22262.49795219  .00000424  00000-0  44757-4 0  9990,2 51985  53.2193 327.7665 0001630  57.7117 302.4033 15.08831529 29757,6917.906,95.438,540.899,538.644,0.0
51985.0,STARLINK-3651,PAYLOAD,2022-09-20 03:50:54,15.08842468,0.0001698,53.219,324.7921,54.9139,305.2012,2.2956e-05,7.7e-07,0.0,0 STARLINK-3651,1 51985U 22025AF  22263.16034734  .00000077  00000-0  22956-4 0  9994,2 51985  53.2190 324.7921 0001698  54.9139 305.2012 15.08842468 30948,6917.873000000001,95.437,540.913,538.563,0.0
51985.0,STARLINK-3651,PAYLOAD,2022-09-20 10:12:24,15.08869904,0.0001325,53.2192,323.6029,60.354,299.7584,0.00024339,3.591e-05,0.0,0 STARLINK-3651,1 51985U 22025AF  22263.42528559  .00003591  00000-0  24339-3 0  9996,2 51985  53.2192 323.6029 0001325  60.3540 299.7584 15.08869904 30980,6917.7890000000025,95.436,540.571,538.737,0.0
51985.0,STARLINK-3651,PAYLOAD,2022-09-20 11:47:49,15.08846755,0.0001534,53.2183,323.3047,57.6519,302.4621,2.6971e-05,1.41e-06,0.0,0 STARLINK-3651,1 51985U 22025AF  22263.49154314  .00000141  00000-0  26971-4 0  9990,2 51985  53.2183 323.3047 0001534  57.6519 302.4621 15.08846755 30998,6917.86,95.437,540.786,538.664,0.0
51985.0,STARLINK-3651,PAYLOAD,2022-09-21 03:41:41,15.08837257,0.0001571,53.2184,320.3319,58.4532,301.6613,6.685899999999999e-05,7.76e-06,0.0,0 STARLINK-3651,1 51985U 22025AF  22264.15394866  .00000776  00000-0  66859-4 0  9995,2 51985  53.2184 320.3319 0001571  58.4532 301.6613 15.08837257 31094,6917.889,95.438,540.841,538.6669999999998,0.0
51985.0,STARLINK-3651,PAYLOAD,2022-09-21 21:10:56,15.08834044,0.0001702,53.2174,317.0616,51.8417,308.2728,4.2119e-05,3.82e-06,0.0,0 STARLINK-3651,1 51985U 22025AF  22264.88259279  .00000382  00000-0  42119-4 0  9999,2 51985  53.2174 317.0616 0001702  51.8417 308.2728 15.08834044 31205,6917.899,95.438,540.941,538.586,0.0
